[{"OBJECT_NAME":"STARLINK-11447 [DTC]","OBJECT_ID":"2024-249K","EPOCH":"2025-12-16T06:17:38.060448","MEAN_MOTION":15.7089423,"ECCENTRICITY":0.0002071,"INCLINATION":42.9991,"RA_OF_ASC_NODE":310.1693,"ARG_OF_PERICENTER":274.8571,"MEAN_ANOMALY":85.206,"EPHEMERIS_TYPE":0,"CLASSIFICATION_TYPE":"U","NORAD_CAT_ID":62418,"ELEMENT_SET_NO":999,"REV_AT_EPOCH":5636,"BSTAR":0.0015918231,"MEAN_MOTION_DOT":0.00209515,"MEAN_MOTION_DDOT":0},{"OBJECT_NAME":"STARLINK-11439 [DTC]","OBJECT_ID":"2024-249L","EPOCH":"2025-12-15T22:55:07.918464","MEAN_MOTION":15.70886802,"ECCENTRICITY":0.00036778,"INCLINATION":43.0003,"RA_OF_ASC_NODE":312.1719,"ARG_OF_PERICENTER":294.804,"MEAN_ANOMALY":65.2445,"EPHEMERIS_TYPE":0,"CLASSIFICATION_TYPE":"U","NORAD_CAT_ID":62419,"ELEMENT_SET_NO":999,"REV_AT_EPOCH":5631,"BSTAR":0.0017599077,"MEAN_MOTION_DOT":0.00232289,"MEAN_MOTION_DDOT":0},{"OBJECT_NAME":"STARLINK-11434 [DTC]","OBJECT_ID":"2024-249M","EPOCH":"2025-12-16T04:15:40.567968","MEAN_MOTION":15.7093076,"ECCENTRICITY":8.601e-5,"INCLINATION":43.0014,"RA_OF_ASC_NODE":311.2776,"ARG_OF_PERICENTER":248.1426,"MEAN_ANOMALY":111.9351,"EPHEMERIS_TYPE":0,"CLASSIFICATION_TYPE":"U","NORAD_CAT_ID":62420,"ELEMENT_SET_NO":999,"REV_AT_EPOCH":5634,"BSTAR":0.0012572662,"MEAN_MOTION_DOT":0.00164738,"MEAN_MOTION_DDOT":0},{"OBJECT_NAME":"STARLINK-11461 [DTC]","OBJECT_ID":"2024-249N","EPOCH":"2025-12-16T07:03:30.643488","MEAN_MOTION":15.71065317,"ECCENTRICITY":0.00012223,"INCLINATION":42.9985,"RA_OF_ASC_NODE":310.4244,"ARG_OF_PERICENTER":236.1965,"MEAN_ANOMALY":123.8787,"EPHEMERIS_TYPE":0,"CLASSIFICATION_TYPE":"U","NORAD_CAT_ID":62421,"ELEMENT_SET_NO":999,"REV_AT_EPOCH":5636,"BSTAR":0.0018413597,"MEAN_MOTION_DOT":0.00245239,"MEAN_MOTION_DDOT":0},{"OBJECT_NAME":"STARLINK-32692","OBJECT_ID":"2024-249P","EPOCH":"2025-12-16T06:30:22.835232","MEAN_MOTION":15.27607956,"ECCENTRICITY":6.523e-5,"INCLINATION":43.0006,"RA_OF_ASC_NODE":73.1442,"ARG_OF_PERICENTER":283.8854,"MEAN_ANOMALY":76.1926,"EPHEMERIS_TYPE":0,"CLASSIFICATION_TYPE":"U","NORAD_CAT_ID":62422,"ELEMENT_SET_NO":999,"REV_AT_EPOCH":5496,"BSTAR":0.00061543703,"MEAN_MOTION_DOT":0.00016726,"MEAN_MOTION_DDOT":0},{"OBJECT_NAME":"STARLINK-32680","OBJECT_ID":"2024-249Q","EPOCH":"2025-12-16T04:53:42.568224","MEAN_MOTION":15.27613944,"ECCENTRICITY":5.862e-5,"INCLINATION":43.0024,"RA_OF_ASC_NODE":65.7232,"ARG_OF_PERICENTER":251.4401,"MEAN_ANOMALY":108.6387,"EPHEMERIS_TYPE":0,"CLASSIFICATION_TYPE":"U","NORAD_CAT_ID":62423,"ELEMENT_SET_NO":999,"REV_AT_EPOCH":5504,"BSTAR":0.00074578038,"MEAN_MOTION_DOT":0.00020338,"MEAN_MOTION_DDOT":0},{"OBJECT_NAME":"STARLINK-32638","OBJECT_ID":"2024-249R","EPOCH":"2025-12-16T06:50:02.215104","MEAN_MOTION":15.27610639,"ECCENTRICITY":0.00013019,"INCLINATION":43.0007,"RA_OF_ASC_NODE":76.7314,"ARG_OF_PERICENTER":273.3042,"MEAN_ANOMALY":86.7661,"EPHEMERIS_TYPE":0,"CLASSIFICATION_TYPE":"U","NORAD_CAT_ID":62424,"ELEMENT_SET_NO":999,"REV_AT_EPOCH":5492,"BSTAR":0.00054546919,"MEAN_MOTION_DOT":0.00014792,"MEAN_MOTION_DDOT":0},{"OBJECT_NAME":"STARLINK-32283","OBJECT_ID":"2024-249S","EPOCH":"2025-12-16T05:58:56.066592","MEAN_MOTION":15.27578681,"ECCENTRICITY":0.00016661,"INCLINATION":43.0037,"RA_OF_ASC_NODE":61.7395,"ARG_OF_PERICENTER":248.457,"MEAN_ANOMALY":111.6104,"EPHEMERIS_TYPE":0,"CLASSIFICATION_TYPE":"U","NORAD_CAT_ID":62425,"ELEMENT_SET_NO":999,"REV_AT_EPOCH":5509,"BSTAR":0.0002346326,"MEAN_MOTION_DOT":6.2e-5,"MEAN_MOTION_DDOT":0},{"OBJECT_NAME":"STARLINK-32676","OBJECT_ID":"2024-249T","EPOCH":"2025-12-16T08:00:04.000032","MEAN_MOTION":15.2759307,"ECCENTRICITY":0.00012997,"INCLINATION":43.0007,"RA_OF_ASC_NODE":65.3168,"ARG_OF_PERICENTER":270.3052,"MEAN_ANOMALY":307.8728,"EPHEMERIS_TYPE":0,"CLASSIFICATION_TYPE":"U","NORAD_CAT_ID":62426,"ELEMENT_SET_NO":999,"REV_AT_EPOCH":582,"BSTAR":-0.00034637572,"MEAN_MOTION_DOT":-9.785e-5,"MEAN_MOTION_DDOT":0},{"OBJECT_NAME":"STARLINK-32659","OBJECT_ID":"2024-249U","EPOCH":"2025-12-16T06:42:39.938688","MEAN_MOTION":15.27615257,"ECCENTRICITY":0.00012466,"INCLINATION":42.9993,"RA_OF_ASC_NODE":65.4295,"ARG_OF_PERICENTER":181.1836,"MEAN_ANOMALY":178.9013,"EPHEMERIS_TYPE":0,"CLASSIFICATION_TYPE":"U","NORAD_CAT_ID":62427,"ELEMENT_SET_NO":999,"REV_AT_EPOCH":5505,"BSTAR":0.00066058814,"MEAN_MOTION_DOT":0.0001798,"MEAN_MOTION_DDOT":0},{"OBJECT_NAME":"STARLINK-32614","OBJECT_ID":"2024-249V","EPOCH":"2025-12-16T06:24:49.873824","MEAN_MOTION":15.27595338,"ECCENTRICITY":0.00013669,"INCLINATION":42.9989,"RA_OF_ASC_NODE":73.1257,"ARG_OF_PERICENTER":282.27,"MEAN_ANOMALY":77.7999,"EPHEMERIS_TYPE":0,"CLASSIFICATION_TYPE":"U","NORAD_CAT_ID":62428,"ELEMENT_SET_NO":999,"REV_AT_EPOCH":5496,"BSTAR":0.0008992679,"MEAN_MOTION_DOT":0.00024578,"MEAN_MOTION_DDOT":0},{"OBJECT_NAME":"STARLINK-32418","OBJECT_ID":"2024-249W","EPOCH":"2025-12-15T22:13:01.933248","MEAN_MOTION":15.27608532,"ECCENTRICITY":0.00016173,"INCLINATION":43.0007,"RA_OF_ASC_NODE":67.0751,"ARG_OF_PERICENTER":286.4084,"MEAN_ANOMALY":73.659,"EPHEMERIS_TYPE":0,"CLASSIFICATION_TYPE":"U","NORAD_CAT_ID":62429,"ELEMENT_SET_NO":999,"REV_AT_EPOCH":5500,"BSTAR":0.00079888618,"MEAN_MOTION_DOT":0.00021806,"MEAN_MOTION_DDOT":0},{"OBJECT_NAME":"STARLINK-32702","OBJECT_ID":"2024-251A","EPOCH":"2025-12-16T07:33:35.676864","MEAN_MOTION":15.30207875,"ECCENTRICITY":0.00013368,"INCLINATION":53.1607,"RA_OF_ASC_NODE":359.7147,"ARG_OF_PERICENTER":80.7419,"MEAN_ANOMALY":279.3733,"EPHEMERIS_TYPE":0,"CLASSIFICATION_TYPE":"U","NORAD_CAT_ID":62432,"ELEMENT_SET_NO":999,"REV_AT_EPOCH":5522,"BSTAR":0.00035231066,"MEAN_MOTION_DOT":0.00010092,"MEAN_MOTION_DDOT":0},{"OBJECT_NAME":"STARLINK-32712","OBJECT_ID":"2024-251B","EPOCH":"2025-12-16T07:52:44.679360","MEAN_MOTION":15.30203003,"ECCENTRICITY":0.00013874,"INCLINATION":53.1605,"RA_OF_ASC_NODE":2.6366,"ARG_OF_PERICENTER":76.0198,"MEAN_ANOMALY":284.0957,"EPHEMERIS_TYPE":0,"CLASSIFICATION_TYPE":"U","NORAD_CAT_ID":62433,"ELEMENT_SET_NO":999,"REV_AT_EPOCH":5518,"BSTAR":0.00022384235,"MEAN_MOTION_DOT":6.277e-5,"MEAN_MOTION_DDOT":0},{"OBJECT_NAME":"STARLINK-32674","OBJECT_ID":"2024-251C","EPOCH":"2025-12-16T06:58:02.466912","MEAN_MOTION":15.3017108,"ECCENTRICITY":0.0001275,"INCLINATION":53.1603,"RA_OF_ASC_NODE":2.4005,"ARG_OF_PERICENTER":77.3108,"MEAN_ANOMALY":282.8035,"EPHEMERIS_TYPE":0,"CLASSIFICATION_TYPE":"U","NORAD_CAT_ID":62434,"ELEMENT_SET_NO":999,"REV_AT_EPOCH":5518,"BSTAR":0.00046669432,"MEAN_MOTION_DOT":0.00013476,"MEAN_MOTION_DDOT":0},{"OBJECT_NAME":"STARLINK-32711","OBJECT_ID":"2024-251D","EPOCH":"2025-12-16T07:48:11.905056","MEAN_MOTION":15.30211678,"ECCENTRICITY":0.00011704,"INCLINATION":53.1602,"RA_OF_ASC_NODE":2.6158,"ARG_OF_PERICENTER":28.0546,"MEAN_ANOMALY":332.0518,"EPHEMERIS_TYPE":0,"CLASSIFICATION_TYPE":"U","NORAD_CAT_ID":62435,"ELEMENT_SET_NO":999,"REV_AT_EPOCH":5518,"BSTAR":0.00082442371,"MEAN_MOTION_DOT":0.00024146,"MEAN_MOTION_DDOT":0}]
