STARLINK-11447 [DTC]    
1 62418U 24249K   25350.26224607  .00209515  00000+0  15918-2 0  9993
2 62418  42.9991 310.1693 0002071 274.8571  85.2060 15.70894230 56364
STARLINK-11439 [DTC]    
1 62419U 24249L   25349.95495276  .00232289  00000+0  17599-2 0  9991
2 62419  43.0003 312.1719 0003677 294.8040  65.2445 15.70886802 56314
STARLINK-11434 [DTC]    
1 62420U 24249M   25350.17755287  .00164738  00000+0  12573-2 0  9990
2 62420  43.0014 311.2776 0000860 248.1426 111.9351 15.70930760 56343
STARLINK-11461 [DTC]    
1 62421U 24249N   25350.29410467  .00245239  00000+0  18414-2 0  9998
2 62421  42.9985 310.4244 0001222 236.1965 123.8787 15.71065317 56363
STARLINK-32692          
1 62422U 24249P   25350.27109763  .00016726  00000+0  61544-3 0  9991
2 62422  43.0006  73.1442 0000652 283.8854  76.1926 15.27607956 54966
STARLINK-32680          
1 62423U 24249Q   25350.20396491  .00020338  00000+0  74578-3 0  9996
2 62423  43.0024  65.7232 0000586 251.4401 108.6387 15.27613944 55042
STARLINK-32638          
1 62424U 24249R   25350.28474786  .00014792  00000+0  54547-3 0  9990
2 62424  43.0007  76.7314 0001301 273.3042  86.7661 15.27610639 54922
STARLINK-32283          
1 62425U 24249S   25350.24926003  .00006200  00000+0  23463-3 0  9999
2 62425  43.0037  61.7395 0001666 248.4570 111.6104 15.27578681 55091
STARLINK-32676          
1 62426U 24249T   25350.33337963 -.00009785  00000+0 -34638-3 0  9990
2 62426  43.0007  65.3168 0001299 270.3052 307.8728 15.27593070  5824
STARLINK-32659          
1 62427U 24249U   25350.27962892  .00017980  00000+0  66059-3 0  9995
2 62427  42.9993  65.4295 0001246 181.1836 178.9013 15.27615257 55056
STARLINK-32614          
1 62428U 24249V   25350.26724391  .00024578  00000+0  89927-3 0  9995
2 62428  42.9989  73.1257 0001366 282.2700  77.7999 15.27595338 54967
STARLINK-32418          
1 62429U 24249W   25349.92571682  .00021806  00000+0  79889-3 0  9997
2 62429  43.0007  67.0751 0001617 286.4084  73.6590 15.27608532 55001
STARLINK-32702          
1 62432U 24251A   25350.31499626  .00010092  00000+0  35231-3 0  9994
2 62432  53.1607 359.7147 0001336  80.7419 279.3733 15.30207875 55225
STARLINK-32712          
1 62433U 24251B   25350.32829490  .00006277  00000+0  22384-3 0  9997
2 62433  53.1605   2.6366 0001387  76.0198 284.0957 15.30203003 55184
STARLINK-32674          
1 62434U 24251C   25350.29030633  .00013476  00000+0  46669-3 0  9998
2 62434  53.1603   2.4005 0001275  77.3108 282.8035 15.30171080 55184
STARLINK-32711          
1 62435U 24251D   25350.32513779  .00024146  00000+0  82442-3 0  9995
2 62435  53.1602   2.6158 0001170  28.0546 332.0518 15.30211678 55180
